{"type": "FeatureCollection", "features": [ {"type": "Feature", "properties": {"norad_id": 43565, "name": "GSAT0222 (GALILEO 26)", "group": "gnss", "lat": -10.809975029076947, "lon": 173.84483961408404, "alt_km": 23217.653690190305, "timestamp": "2025-12-14T05:42:18.701581+00:00", "meta": {"OBJECT_NAME": "GSAT0222 (GALILEO 26)", "OBJECT_ID": "2018-060B", "EPOCH": "2025-12-11T13:50:46.646592", "MEAN_MOTION": 1.70475594, "ECCENTRICITY": 0.00061469, "INCLINATION": 57.2316, "RA_OF_ASC_NODE": 346.8519, "ARG_OF_PERICENTER": 263.5274, "MEAN_ANOMALY": 96.42, "EPHEMERIS_TYPE": 0, "CLASSIFICATION_TYPE": "U", "NORAD_CAT_ID": 43565, "ELEMENT_SET_NO": 999, "REV_AT_EPOCH": 4601, "BSTAR": 0, "MEAN_MOTION_DOT": -8.7e-07, "MEAN_MOTION_DDOT": 0}, "tle": {"line1": "1 43565U 18060B   25345.57692878 -.00000087  00000+0  00000+0 0  9993", "line2": "2 43565  57.2316 346.8519 0006146 263.5274  96.4200  1.70475594 46015"}}, "geometry": {"type": "Point", "coordinates": [173.84483961408404, -10.809975029076947]}}, {"type": "Feature", "properties": {"norad_id": 43566, "name": "GSAT0219 (GALILEO 23)", "group": "gnss", "lat": 44.99855969217845, "lon": 26.883359738827462, "alt_km": 23227.712238819313, "timestamp": "2025-12-14T05:42:18.701592+00:00", "meta": {"OBJECT_NAME": "GSAT0219 (GALILEO 23)", "OBJECT_ID": "2018-060C", "EPOCH": "2025-12-12T23:18:35.949024", "MEAN_MOTION": 1.70475808, "ECCENTRICITY": 0.00058128, "INCLINATION": 57.2304, "RA_OF_ASC_NODE": 346.8158, "ARG_OF_PERICENTER": 287.2893, "MEAN_ANOMALY": 72.6656, "EPHEMERIS_TYPE": 0, "CLASSIFICATION_TYPE": "U", "NORAD_CAT_ID": 43566, "ELEMENT_SET_NO": 999, "REV_AT_EPOCH": 4601, "BSTAR": 0, "MEAN_MOTION_DOT": -8.6e-07, "MEAN_MOTION_DDOT": 0}, "tle": {"line1": "1 43566U 18060C   25346.97124941 -.00000086  00000+0  00000+0 0  9999", "line2": "2 43566  57.2304 346.8158 0005812 287.2893  72.6656  1.70475808 46010"}}, "geometry": {"type": "Point", "coordinates": [26.883359738827462, 44.99855969217845]}}, {"type": "Feature", "properties": {"norad_id": 43567, "name": "GSAT0220 (GALILEO 24)", "group": "gnss", "lat": -55.43152248952631, "lon": -82.43359165293413, "alt_km": 23209.80601040996, "timestamp": "2025-12-14T05:42:18.701603+00:00", "meta": {"OBJECT_NAME": "GSAT0220 (GALILEO 24)", "OBJECT_ID": "2018-060D", "EPOCH": "2025-12-10T20:18:00.212256", "MEAN_MOTION": 1.70475727, "ECCENTRICITY": 0.0006125, "INCLINATION": 57.2305, "RA_OF_ASC_NODE": 346.8727, "ARG_OF_PERICENTER": 283.9956, "MEAN_ANOMALY": 75.9532, "EPHEMERIS_TYPE": 0, "CLASSIFICATION_TYPE": "U", "NORAD_CAT_ID": 43567, "ELEMENT_SET_NO": 999, "REV_AT_EPOCH": 4596, "BSTAR": 0, "MEAN_MOTION_DOT": -8.7e-07, "MEAN_MOTION_DDOT": 0}, "tle": {"line1": "1 43567U 18060D   25344.84583579 -.00000087  00000+0  00000+0 0  9991", "line2": "2 43567  57.2305 346.8727 0006125 283.9956  75.9532  1.70475727 45967"}}, "geometry": {"type": "Point", "coordinates": [-82.43359165293413, -55.43152248952631]}}, {"type": "Feature", "properties": {"norad_id": 43581, "name": "BEIDOU-3 M5 (C23)", "group": "gnss", "lat": -51.44509952581786, "lon": 74.01408318631076, "alt_km": 21534.84927038178, "timestamp": "2025-12-14T05:42:18.701646+00:00", "meta": {"OBJECT_NAME": "BEIDOU-3 M5 (C23)", "OBJECT_ID": "2018-062A", "EPOCH": "2025-12-12T05:55:01.607232", "MEAN_MOTION": 1.86228672, "ECCENTRICITY": 0.00021016, "INCLINATION": 54.0891, "RA_OF_ASC_NODE": 188.6597, "ARG_OF_PERICENTER": 354.1416, "MEAN_ANOMALY": 5.9159, "EPHEMERIS_TYPE": 0, "CLASSIFICATION_TYPE": "U", "NORAD_CAT_ID": 43581, "ELEMENT_SET_NO": 999, "REV_AT_EPOCH": 5015, "BSTAR": 0, "MEAN_MOTION_DOT": 7.9e-07, "MEAN_MOTION_DDOT": 0}, "tle": {"line1": "1 43581U 18062A   25346.24654638  .00000079  00000+0  00000+0 0  9990", "line2": "2 43581  54.0891 188.6597 0002101 354.1416   5.9159  1.86228672 50154"}}, "geometry": {"type": "Point", "coordinates": [74.01408318631076, -51.44509952581786]}}, {"type": "Feature", "properties": {"norad_id": 43582, "name": "BEIDOU-3 M6 (C24)", "group": "gnss", "lat": -10.687139556871143, "lon": -179.27402165310698, "alt_km": 21518.975498153708, "timestamp": "2025-12-14T05:42:18.701677+00:00", "meta": {"OBJECT_NAME": "BEIDOU-3 M6 (C24)", "OBJECT_ID": "2018-062B", "EPOCH": "2025-12-13T04:24:17.587296", "MEAN_MOTION": 1.86229795, "ECCENTRICITY": 0.00078891, "INCLINATION": 54.0888, "RA_OF_ASC_NODE": 188.6169, "ARG_OF_PERICENTER": 47.4004, "MEAN_ANOMALY": 312.7289, "EPHEMERIS_TYPE": 0, "CLASSIFICATION_TYPE": "U", "NORAD_CAT_ID": 43582, "ELEMENT_SET_NO": 999, "REV_AT_EPOCH": 5017, "BSTAR": 0, "MEAN_MOTION_DOT": 9.2e-07, "MEAN_MOTION_DDOT": 0}, "tle": {"line1": "1 43582U 18062B   25347.18353689  .00000092  00000+0  00000+0 0  9992", "line2": "2 43582  54.0888 188.6169 0007889  47.4004 312.7289  1.86229795 50171"}}, "geometry": {"type": "Point", "coordinates": [-179.27402165310698, -10.687139556871143]}}, {"type": "Feature", "properties": {"norad_id": 43602, "name": "BEIDOU-3 M12 (C26)", "group": "gnss", "lat": 22.751325202579594, "lon": -155.05034196513924, "alt_km": 21500.62060526343, "timestamp": "2025-12-14T05:42:18.701696+00:00", "meta": {"OBJECT_NAME": "BEIDOU-3 M12 (C26)", "OBJECT_ID": "2018-067A", "EPOCH": "2025-12-13T02:54:46.196064", "MEAN_MOTION": 1.8622768, "ECCENTRICITY": 0.00091748, "INCLINATION": 54.1833, "RA_OF_ASC_NODE": 187.3503, "ARG_OF_PERICENTER": 41.0824, "MEAN_ANOMALY": 319.0476, "EPHEMERIS_TYPE": 0, "CLASSIFICATION_TYPE": "U", "NORAD_CAT_ID": 43602, "ELEMENT_SET_NO": 999, "REV_AT_EPOCH": 4965, "BSTAR": 0, "MEAN_MOTION_DOT": 9.3e-07, "MEAN_MOTION_DDOT": 0}, "tle": {"line1": "1 43602U 18067A   25347.12136801  .00000093  00000+0  00000+0 0  9990", "line2": "2 43602  54.1833 187.3503 0009174  41.0824 319.0476  1.86227680 49652"}}, "geometry": {"type": "Point", "coordinates": [-155.05034196513924, 22.751325202579594]}}, {"type": "Feature", "properties": {"norad_id": 43603, "name": "BEIDOU-3 M11 (C25)", "group": "gnss", "lat": -45.56819334396601, "lon": 139.8210027696089, "alt_km": 21535.96805221695, "timestamp": "2025-12-14T05:42:18.701736+00:00", "meta": {"OBJECT_NAME": "BEIDOU-3 M11 (C25)", "OBJECT_ID": "2018-067B", "EPOCH": "2025-12-13T06:08:27.943008", "MEAN_MOTION": 1.86227177, "ECCENTRICITY": 0.00055759, "INCLINATION": 54.1803, "RA_OF_ASC_NODE": 187.3097, "ARG_OF_PERICENTER": 36.863, "MEAN_ANOMALY": 323.2366, "EPHEMERIS_TYPE": 0, "CLASSIFICATION_TYPE": "U", "NORAD_CAT_ID": 43603, "ELEMENT_SET_NO": 999, "REV_AT_EPOCH": 4968, "BSTAR": 0, "MEAN_MOTION_DOT": 9.5e-07, "MEAN_MOTION_DDOT": 0}, "tle": {"line1": "1 43603U 18067B   25347.25587897  .00000095  00000+0  00000+0 0  9992", "line2": "2 43603  54.1803 187.3097 0005575  36.8630 323.2366  1.86227177 49685"}}, "geometry": {"type": "Point", "coordinates": [139.8210027696089, -45.56819334396601]}}, {"type": "Feature", "properties": {"norad_id": 43622, "name": "BEIDOU-3 M13 (C32)", "group": "gnss", "lat": -26.678897295937727, "lon": 49.3365126669922, "alt_km": 21517.206714425294, "timestamp": "2025-12-14T05:42:18.701758+00:00", "meta": {"OBJECT_NAME": "BEIDOU-3 M13 (C32)", "OBJECT_ID": "2018-072A", "EPOCH": "2025-12-12T16:12:36.163584", "MEAN_MOTION": 1.8623072, "ECCENTRICITY": 0.0005872, "INCLINATION": 56.4592, "RA_OF_ASC_NODE": 68.8222, "ARG_OF_PERICENTER": 298.9421, "MEAN_ANOMALY": 61.0187, "EPHEMERIS_TYPE": 0, "CLASSIFICATION_TYPE": "U", "NORAD_CAT_ID": 43622, "ELEMENT_SET_NO": 999, "REV_AT_EPOCH": 4918, "BSTAR": 0, "MEAN_MOTION_DOT": -7.4e-07, "MEAN_MOTION_DDOT": 0}, "tle": {"line1": "1 43622U 18072A   25346.67541856 -.00000074  00000+0  00000+0 0  9997", "line2": "2 43622  56.4592  68.8222 0005872 298.9421  61.0187  1.86230720 49189"}}, "geometry": {"type": "Point", "coordinates": [49.3365126669922, -26.678897295937727]}}, {"type": "Feature", "properties": {"norad_id": 43623, "name": "BEIDOU-3 M14 (C33)", "group": "gnss", "lat": 44.785993291135554, "lon": 109.87392014469522, "alt_km": 21521.61047004765, "timestamp": "2025-12-14T05:42:18.701779+00:00", "meta": {"OBJECT_NAME": "BEIDOU-3 M14 (C33)", "OBJECT_ID": "2018-072B", "EPOCH": "2025-12-12T00:05:39.634080", "MEAN_MOTION": 1.86230719, "ECCENTRICITY": 0.00032787, "INCLINATION": 56.4604, "RA_OF_ASC_NODE": 68.8385, "ARG_OF_PERICENTER": 334.6213, "MEAN_ANOMALY": 25.3832, "EPHEMERIS_TYPE": 0, "CLASSIFICATION_TYPE": "U", "NORAD_CAT_ID": 43623, "ELEMENT_SET_NO": 999, "REV_AT_EPOCH": 4916, "BSTAR": 0, "MEAN_MOTION_DOT": -6.8e-07, "MEAN_MOTION_DDOT": 0}, "tle": {"line1": "1 43623U 18072B   25346.00393095 -.00000068  00000+0  00000+0 0  9998", "line2": "2 43623  56.4604  68.8385 0003278 334.6213  25.3832  1.86230719 49165"}}, "geometry": {"type": "Point", "coordinates": [109.87392014469522, 44.785993291135554]}}, {"type": "Feature", "properties": {"norad_id": 43647, "name": "BEIDOU-3 M16 (C35)", "group": "gnss", "lat": -37.2377412335267, "lon": -86.70860609712258, "alt_km": 21524.726401880525, "timestamp": "2025-12-14T05:42:18.701797+00:00", "meta": {"OBJECT_NAME": "BEIDOU-3 M16 (C35)", "OBJECT_ID": "2018-078A", "EPOCH": "2025-12-13T05:39:20.780352", "MEAN_MOTION": 1.8623234, "ECCENTRICITY": 0.00072054, "INCLINATION": 54.2615, "RA_OF_ASC_NODE": 306.5038, "ARG_OF_PERICENTER": 19.3609, "MEAN_ANOMALY": 340.6562, "EPHEMERIS_TYPE": 0, "CLASSIFICATION_TYPE": "U", "NORAD_CAT_ID": 43647, "ELEMENT_SET_NO": 999, "REV_AT_EPOCH": 4869, "BSTAR": 0, "MEAN_MOTION_DOT": -9.7e-07, "MEAN_MOTION_DDOT": 0}, "tle": {"line1": "1 43647U 18078A   25347.23565718 -.00000097  00000+0  00000+0 0  9991", "line2": "2 43647  54.2615 306.5038 0007205  19.3609 340.6562  1.86232340 48698"}}, "geometry": {"type": "Point", "coordinates": [-86.70860609712258, -37.2377412335267]}}]}